*******************************************************************************
 Revised: April 12, 2021                 Earth                              399
 
 GEOPHYSICAL PROPERTIES (revised May 9, 2022):
  Vol. Mean Radius (km)    = 6371.01+-0.02   Mass x10^24 (kg)= 5.97219+-0.0006
  Equ. radius, km          = 6378.137        Mass layers:
  Polar axis, km           = 6356.752          Atmos         = 5.1   x 10^18 kg
  Flattening               = 1/298.257223563   oceans        = 1.4   x 10^21 kg
  Density, g/cm^3          = 5.51              crust         = 2.6   x 10^22 kg
  J2 (IERS 2010)           = 0.00108262545     mantle        = 4.043 x 10^24 kg
  g_p, m/s^2  (polar)      = 9.8321863685      outer core    = 1.835 x 10^24 kg
  g_e, m/s^2  (equatorial) = 9.7803267715      inner core    = 9.675 x 10^22 kg
  g_o, m/s^2               = 9.82022         Fluid core rad  = 3480 km
  GM, km^3/s^2             = 398600.435436   Inner core rad  = 1215 km
  GM 1-sigma, km^3/s^2     =      0.0014     Escape velocity = 11.186 km/s
  Rot. Rate (rad/s)        = 0.00007292115   Surface area:
  Mean sidereal day, hr    = 23.9344695944     land          = 1.48 x 10^8 km
  Mean solar day 2000.0, s = 86400.002         sea           = 3.62 x 10^8 km
  Mean solar day 1820.0, s = 86400.0         Love no., k2    = 0.299
  Moment of inertia        = 0.3308          Atm. pressure   = 1.0 bar
  Mean surface temp (Ts), K= 287.6           Volume, km^3    = 1.08321 x 10^12
  Mean effect. temp (Te), K= 255             Magnetic moment = 0.61 gauss Rp^3
  Geometric albedo         = 0.367           Vis. mag. V(1,0)= -3.86
  Solar Constant (W/m^2)   = 1367.6 (mean), 1414 (perihelion), 1322 (aphelion)
 HELIOCENTRIC ORBIT CHARACTERISTICS:
  Obliquity to orbit, deg  = 23.4392911  Sidereal orb period  = 1.0000174 y
  Orbital speed, km/s      = 29.79       Sidereal orb period  = 365.25636 d
  Mean daily motion, deg/d = 0.9856474   Hill's sphere radius = 234.9       
*******************************************************************************


*******************************************************************************
Ephemeris / WWW_USER Sun Mar  5 17:41:14 2023 Pasadena, USA      / Horizons
*******************************************************************************
Target body name: Earth (399)                     {source: DE441}
Center body name: Sun (10)                        {source: DE441}
Center-site name: BODY CENTER
*******************************************************************************
Start time      : A.D. 2022-Jan-01 00:00:00.0000 TDB
Stop  time      : A.D. 2023-Jan-01 00:00:00.0000 TDB
Step-size       : 1440 minutes
*******************************************************************************
Center geodetic : 0.0, 0.0, 0.0                   {E-lon(deg),Lat(deg),Alt(km)}
Center cylindric: 0.0, 0.0, 0.0                   {E-lon(deg),Dxy(km),Dz(km)}
Center radii    : 696000.0, 696000.0, 696000.0 km {Equator_a, b, pole_c}
Output units    : KM-S
Calendar mode   : Mixed Julian/Gregorian
Output type     : GEOMETRIC cartesian states
Output format   : 3 (position, velocity, LT, range, range-rate)
Reference frame : Ecliptic of J2000.0
*******************************************************************************
            JDTDB,            Calendar Date (TDB),                      X,                      Y,                      Z,                     VX,                     VY,                     VZ,                     LT,                     RG,                     RR,
**************************************************************************************************************************************************************************************************************************************************************************
$$SOE
2459649.500000000, A.D. 2022-Mar-11 00:00:00.0000, -1.463654062495804E+08,  2.557619074990834E+07, -7.034319100566208E+02, -5.601228608948896E+00, -2.945837412034852E+01,  6.103239098518287E-04,  4.956202780654131E+02,  1.485832213958737E+08,  4.468411985439869E-01,
2459650.500000000, A.D. 2022-Mar-12 00:00:00.0000, -1.468272319965729E+08,  2.302736595662778E+07, -6.448196948058903E+02, -5.089069207065331E+00, -2.954070622863004E+01,  7.527692531503760E-04,  4.957495931513761E+02,  1.486219890833510E+08,  4.506015031567139E-01,
2459651.500000000, A.D. 2022-Mar-13 00:00:00.0000, -1.472447801870948E+08,  2.047181357623380E+07, -5.723323136921972E+02, -4.576311494881306E+00, -2.961411974272701E+01,  9.306340950256953E-04,  4.958800283390762E+02,  1.486610925688813E+08,  4.546128367121653E-01,
2459652.500000000, A.D. 2022-Mar-14 00:00:00.0000, -1.476180057847307E+08,  1.791030031600625E+07, -4.831526610134169E+02, -4.063107520191531E+00, -2.967870540754389E+01,  1.138084942780893E-03,  4.960116544719065E+02,  1.487005530907795E+08,  4.588638079153757E-01,
2459653.500000000, A.D. 2022-Mar-15 00:00:00.0000, -1.479468762806083E+08,  1.534358466210587E+07, -3.750269367443398E+02, -3.549594294011936E+00, -2.973456286428476E+01,  1.367845458499772E-03,  4.961445380516888E+02,  1.487403905857903E+08,  4.633348371567301E-01,
2459654.500000000, A.D. 2022-Mar-16 00:00:00.0000, -1.482313701293045E+08,  1.277241613566677E+07, -2.464068281119689E+02, -3.035887430598042E+00, -2.978179950369302E+01,  1.610804747757655E-03,  4.962787380898067E+02,  1.487806227450814E+08,  4.679925059065453E-01,
2459655.500000000, A.D. 2022-Mar-17 00:00:00.0000, -1.484714746000430E+08,  1.019753481228212E+07, -9.661938657658175E+01, -2.522074276013586E+00, -2.982052535763821E+01,  1.855798557427235E-03,  4.964143012403822E+02,  1.488212635552066E+08,  4.727835222962520E-01,
2459656.500000000, A.D. 2022-Mar-18 00:00:00.0000, -1.486671830890015E+08,  7.619671476127788E+06,  7.395845676911995E+01, -2.008208729869384E+00, -2.985084352127291E+01,  2.089751508199456E-03,  4.965512553392630E+02,  1.488623213611433E+08,  4.776300242496397E-01,
2459657.500000000, A.D. 2022-Mar-19 00:00:00.0000, -1.488184921532847E+08,  5.039548772040203E+06,  2.637590682203881E+02, -1.494310422210210E+00, -2.987283690137163E+01,  2.298332626324395E-03,  4.966896020324162E+02,  1.489037966563399E+08,  4.824283029572073E-01,
2459658.500000000, A.D. 2022-Mar-20 00:00:00.0000, -1.489253987455605E+08,  2.457883577284943E+06,  4.699637499363162E+02, -9.803704426549820E-01, -2.988655378669296E+01,  2.467152065129596E-03,  4.968293097476888E+02,  1.489456799757030E+08,  4.870526659659077E-01,
2459659.500000000, A.D. 2022-Mar-21 00:00:00.0000, -1.489878982532011E+08, -1.246094634128398E+05,  6.885639455890996E+02, -4.663641199324503E-01, -2.989199602777743E+01,  2.583334078037680E-03,  4.969703085885564E+02,  1.489879503647818E+08,  4.913648200028888E-01,
2459660.500000000, A.D. 2022-Mar-22 00:00:00.0000, -1.490059838845807E+08, -2.707213631705147E+06,  9.145627986292820E+02,  4.773109769563969E-02, -2.988911351855866E+01,  2.637127409800044E-03,  4.971124885644847E+02,  1.490305748492437E+08,  4.952272301805987E-01,
2459661.500000000, A.D. 2022-Mar-23 00:00:00.0000, -1.489796476842771E+08, -5.289205702369425E+06,  1.142303374533076E+03,  5.619165470268472E-01, -2.987780687046106E+01,  2.623168305248669E-03,  4.972557018879816E+02,  1.490735091235132E+08,  4.985174140121051E-01,
2459662.500000000, A.D. 2022-Mar-24 00:00:00.0000, -1.489088830980194E+08, -7.869852076631380E+06,  1.365880802623462E+03,  1.076156178298856E+00, -2.985793751892968E+01,  2.541133373100024E-03,  4.973997691331531E+02,  1.491166993970605E+08,  5.011399850640835E-01,
2459663.500000000, A.D. 2022-Mar-25 00:00:00.0000, -1.487936887056740E+08, -1.044840601437053E+07,  1.579581981774885E+03,  1.590365947558728E+00, -2.982934251110823E+01,  2.395734527526727E-03,  4.975444882867506E+02,  1.491600851078372E+08,  5.030345061725955E-01,
2459664.500000000, A.D. 2022-Mar-26 00:00:00.0000, -1.486340726053768E+08, -1.302410623126298E+07,  1.778300666810013E+03,  2.104409279545685E+00, -2.979185084598631E+01,  2.196184096469267E-03,  4.976896454142124E+02,  1.492036021198751E+08,  5.041789302223600E-01,
2459665.500000000, A.D. 2022-Mar-27 00:00:00.0000, -1.484300569587800E+08, -1.559617689188315E+07,  1.957890113800764E+03,  2.618097665313064E+00, -2.974529919848307E+01,  1.955312816516397E-03,  4.978350257834239E+02,  1.492471860581060E+08,  5.045895218046729E-01,
2459666.500000000, A.D. 2022-Mar-28 00:00:00.0000, -1.481816823060513E+08, -1.816382889750033E+07,  2.115429651506245E+03,  3.131195236746626E+00, -2.968954608297445E+01,  1.688475345281049E-03,  4.979804245818510E+02,  1.492907755212767E+08,  5.043182379805510E-01,
2459667.500000000, A.D. 2022-Mar-29 00:00:00.0000, -1.478890113381111E+08, -2.072626231651071E+07,  2.249390040824190E+03,  3.643426706365437E+00, -2.962448407354280E+01,  1.412309263209011E-03,  4.981256565687723E+02,  1.493343149756161E+08,  5.034479690846502E-01,
2459668.500000000, A.D. 2022-Mar-30 00:00:00.0000, -1.475521318440358E+08, -2.328266976522863E+07,  2.359686976179481E+03,  4.154488492232303E+00, -2.955004942214735E+01,  1.143397834841409E-03,  4.982705640370028E+02,  1.493777571416995E+08,  5.020855355229837E-01,
2459669.500000000, A.D. 2022-Mar-31 00:00:00.0000, -1.471711585739234E+08, -2.583224046454155E+07,  2.447618305990472E+03,  4.664062551547396E+00, -2.946622785011507E+01,  8.969392680651112E-04,  4.984150224274173E+02,  1.494210646776405E+08,  5.003524529243741E-01,
2459670.500000000, A.D. 2022-Apr-01 00:00:00.0000, -1.467462338370444E+08, -2.837416458335144E+07,  2.515692696275190E+03,  5.171831493126373E+00, -2.937305522324692E+01,  6.855981696443081E-04,  4.985589430408258E+02,  1.494642109920911E+08,  4.983742314931939E-01,
2459671.500000000, A.D. 2022-Apr-02 00:00:00.0000, -1.462775268219038E+08, -3.090763739867315E+07,  2.567374142799526E+03,  5.677492614894005E+00, -2.927061267447284E+01,  5.187358344223014E-04,  4.987022726442756E+02,  1.495071801262136E+08,  4.962698513372210E-01,
